start=new Date('2021-11-08T00:00:00.000Z').valueOf();
sats=[{"OBJECT_TYPE":"PAYLOAD","MEAN_ANOMALY":"286.0503","APOAPSIS":"548.300","CENTER_NAME":"EARTH","MEAN_MOTION_DDOT":"0.0000000000000","BSTAR":"-0.00004219300000","EPOCH":"2021-11-07T21:12:04.476096","RCS_SIZE":"LARGE","MEAN_MOTION_DOT":"-0.00000909","OBJECT_ID":"2019-074AR","PERIOD":"95.594","REV_AT_EPOCH":"10990","MEAN_MOTION":"15.06377537","COUNTRY_CODE":"US","PERIAPSIS":"546.264","TLE_LINE2":"2 44752  53.0536 112.1045 0001470  74.0648 286.0503 15.06377537109908","OBJECT_NAME":"STARLINK-1047","FILE":"3207836","INCLINATION":"53.0536","TIME_SYSTEM":"UTC","GP_ID":"189214349","ELEMENT_SET_NO":"999","NORAD_CAT_ID":"44752","RA_OF_ASC_NODE":"112.1045","SITE":"AFETR","TLE_LINE1":"1 44752U 19074AR  21311.88338514 -.00000909  00000-0 -42193-4 0  9994","ECCENTRICITY":"0.00014700","REF_FRAME":"TEME","CLASSIFICATION_TYPE":"U","LAUNCH_DATE":"2019-11-11","EPHEMERIS_TYPE":"0","ARG_OF_PERICENTER":"74.0648","MEAN_ELEMENT_THEORY":"SGP4","DECAY_DATE":null,"SEMIMAJOR_AXIS":"6925.417"},{"MEAN_MOTION_DOT":"0.00000733","RCS_SIZE":"LARGE","OBJECT_ID":"2019-074AS","PERIOD":"95.592","REV_AT_EPOCH":"11030","MEAN_ANOMALY":"271.7035","OBJECT_TYPE":"PAYLOAD","APOAPSIS":"548.269","MEAN_MOTION_DDOT":"0.0000000000000","CENTER_NAME":"EARTH","EPOCH":"2021-11-07T13:22:18.197184","BSTAR":"0.00006808000000","INCLINATION":"53.0549","FILE":"3207578","OBJECT_NAME":"STARLINK-1048","GP_ID":"189188217","ELEMENT_SET_NO":"999","TIME_SYSTEM":"UTC","RA_OF_ASC_NODE":"93.5885","NORAD_CAT_ID":"44753","COUNTRY_CODE":"US","MEAN_MOTION":"15.06405093","PERIAPSIS":"546.127","TLE_LINE2":"2 44753  53.0549  93.5885 0001547  88.4131 271.7035 15.06405093110304","ECCENTRICITY":"0.00015470","SITE":"AFETR","TLE_LINE1":"1 44753U 19074AS  21311.55715506  .00000733  00000-0  68080-4 0  9995","MEAN_ELEMENT_THEORY":"SGP4","DECAY_DATE":null,"SEMIMAJOR_AXIS":"6925.333","REF_FRAME":"TEME","CLASSIFICATION_TYPE":"U","LAUNCH_DATE":"2019-11-11","EPHEMERIS_TYPE":"0","ARG_OF_PERICENTER":"88.4131"},{"MEAN_MOTION":"15.06389319","COUNTRY_CODE":"US","PERIAPSIS":"546.228","TLE_LINE2":"2 44754  53.0551  92.0748 0001471  84.5104 275.6053 15.06389319110184","OBJECT_NAME":"STARLINK-1049","FILE":"3207836","INCLINATION":"53.0551","TIME_SYSTEM":"UTC","GP_ID":"189213854","ELEMENT_SET_NO":"999","NORAD_CAT_ID":"44754","RA_OF_ASC_NODE":"92.0748","MEAN_ANOMALY":"275.6053","OBJECT_TYPE":"PAYLOAD","APOAPSIS":"548.265","CENTER_NAME":"EARTH","MEAN_MOTION_DDOT":"0.0000000000000","BSTAR":"-0.00009824200000","EPOCH":"2021-11-07T21:25:19.765632","RCS_SIZE":"LARGE","MEAN_MOTION_DOT":"-0.00001744","OBJECT_ID":"2019-074AT","PERIOD":"95.593","REV_AT_EPOCH":"11018","REF_FRAME":"TEME","CLASSIFICATION_TYPE":"U","LAUNCH_DATE":"2019-11-11","EPHEMERIS_TYPE":"0","ARG_OF_PERICENTER":"84.5104","MEAN_ELEMENT_THEORY":"SGP4","DECAY_DATE":null,"SEMIMAJOR_AXIS":"6925.381","SITE":"AFETR","TLE_LINE1":"1 44754U 19074AT  21311.89258988 -.00001744  00000-0 -98242-4 0  9997","ECCENTRICITY":"0.00014710"},{"CLASSIFICATION_TYPE":"U","REF_FRAME":"TEME","ARG_OF_PERICENTER":"82.5007","EPHEMERIS_TYPE":"0","LAUNCH_DATE":"2019-11-11","MEAN_ELEMENT_THEORY":"SGP4","SEMIMAJOR_AXIS":"6925.399","DECAY_DATE":null,"SITE":"AFETR","TLE_LINE1":"1 44755U 19074AU  21311.87692356 -.00000933  00000-0 -43731-4 0  9999","ECCENTRICITY":"0.00016870","PERIAPSIS":"546.096","MEAN_MOTION":"15.06383454","COUNTRY_CODE":"US","TLE_LINE2":"2 44755  53.0522 132.1743 0001687  82.5007 277.6174 15.06383454110172","OBJECT_NAME":"STARLINK-1050","FILE":"3207836","INCLINATION":"53.0522","NORAD_CAT_ID":"44755","RA_OF_ASC_NODE":"132.1743","TIME_SYSTEM":"UTC","ELEMENT_SET_NO":"999","GP_ID":"189214605","OBJECT_TYPE":"PAYLOAD","MEAN_ANOMALY":"277.6174","APOAPSIS":"548.433","BSTAR":"-0.00004373100000","EPOCH":"2021-11-07T21:02:46.195584","MEAN_MOTION_DDOT":"0.0000000000000","CENTER_NAME":"EARTH","OBJECT_ID":"2019-074AU","RCS_SIZE":"LARGE","MEAN_MOTION_DOT":"-0.00000933","REV_AT_EPOCH":"11017","PERIOD":"95.593"},{"APOAPSIS":"315.619","OBJECT_TYPE":"PAYLOAD","MEAN_ANOMALY":"302.1592","MEAN_MOTION_DDOT":"0.0000000000000","CENTER_NAME":"EARTH","EPOCH":"2021-11-07T13:40:43.571136","BSTAR":"0.00224220000000","MEAN_MOTION_DOT":"0.00594720","RCS_SIZE":"LARGE","OBJECT_ID":"2019-074AV","PERIOD":"90.811","REV_AT_EPOCH":"11129","COUNTRY_CODE":"US","MEAN_MOTION":"15.85706790","PERIAPSIS":"313.056","TLE_LINE2":"2 44756  53.0517  22.2425 0001915  57.9617 302.1592 15.85706790111291","INCLINATION":"53.0517","OBJECT_NAME":"STARLINK-1051","FILE":"3207586","ELEMENT_SET_NO":"999","GP_ID":"189188237","TIME_SYSTEM":"UTC","RA_OF_ASC_NODE":"22.2425","NORAD_CAT_ID":"44756","SITE":"AFETR","TLE_LINE1":"1 44756U 19074AV  21311.56994874  .00594720  00000-0  22422-2 0  9998","ECCENTRICITY":"0.00019150","REF_FRAME":"TEME","CLASSIFICATION_TYPE":"U","LAUNCH_DATE":"2019-11-11","EPHEMERIS_TYPE":"0","ARG_OF_PERICENTER":"57.9617","MEAN_ELEMENT_THEORY":"SGP4","DECAY_DATE":null,"SEMIMAJOR_AXIS":"6692.472"},{"TLE_LINE2":"2 44757  53.0559 112.0510 0001493  79.3668 280.7490 15.06397590109906","COUNTRY_CODE":"US","MEAN_MOTION":"15.06397590","PERIAPSIS":"546.187","ELEMENT_SET_NO":"999","GP_ID":"189213104","TIME_SYSTEM":"UTC","RA_OF_ASC_NODE":"112.0510","NORAD_CAT_ID":"44757","INCLINATION":"53.0559","FILE":"3207836","OBJECT_NAME":"STARLINK-1052","CENTER_NAME":"EARTH","MEAN_MOTION_DDOT":"0.0000000000000","EPOCH":"2021-11-07T21:27:59.661792","BSTAR":"-0.00032378000000","MEAN_ANOMALY":"280.7490","OBJECT_TYPE":"PAYLOAD","APOAPSIS":"548.255","PERIOD":"95.592","REV_AT_EPOCH":"10990","MEAN_MOTION_DOT":"-0.00005101","RCS_SIZE":"LARGE","OBJECT_ID":"2019-074AW","LAUNCH_DATE":"2019-11-11","EPHEMERIS_TYPE":"0","ARG_OF_PERICENTER":"79.3668","REF_FRAME":"TEME","CLASSIFICATION_TYPE":"U","DECAY_DATE":null,"SEMIMAJOR_AXIS":"6925.356","MEAN_ELEMENT_THEORY":"SGP4","TLE_LINE1":"1 44757U 19074AW  21311.89444053 -.00005101  00000-0 -32378-3 0  9998","SITE":"AFETR","ECCENTRICITY":"0.00014930"},{"ECCENTRICITY":"0.00014150","SITE":"AFETR","TLE_LINE1":"1 44758U 19074AX  21311.90270638 -.00000355  00000-0 -49603-5 0  9994","MEAN_ELEMENT_THEORY":"SGP4","SEMIMAJOR_AXIS":"6925.362","DECAY_DATE":null,"CLASSIFICATION_TYPE":"U","REF_FRAME":"TEME","EPHEMERIS_TYPE":"0","ARG_OF_PERICENTER":"82.9661","LAUNCH_DATE":"2019-11-11","OBJECT_ID":"2019-074AX","MEAN_MOTION_DOT":"-0.00000355","RCS_SIZE":"LARGE","REV_AT_EPOCH":"10963","PERIOD":"95.592","APOAPSIS":"548.207","OBJECT_TYPE":"PAYLOAD","MEAN_ANOMALY":"277.1489","BSTAR":"-0.00000496030000","EPOCH":"2021-11-07T21:39:53.831232","MEAN_MOTION_DDOT":"0.0000000000000","CENTER_NAME":"EARTH","INCLINATION":"53.0549","OBJECT_NAME":"STARLINK-1053","FILE":"3207836","RA_OF_ASC_NODE":"132.0145","NORAD_CAT_ID":"44758","ELEMENT_SET_NO":"999","GP_ID":"189213354","TIME_SYSTEM":"UTC","PERIAPSIS":"546.247","COUNTRY_CODE":"US","MEAN_MOTION":"15.06395579","TLE_LINE2":"2 44758  53.0549 132.0145 0001415  82.9661 277.1489 15.06395579109632"},{"SITE":"AFETR","TLE_LINE1":"1 44759U 19074AY  21311.89258170  .00001201  00000-0  99535-4 0  9997","ECCENTRICITY":"0.00016900","CLASSIFICATION_TYPE":"U","REF_FRAME":"TEME","EPHEMERIS_TYPE":"0","ARG_OF_PERICENTER":"80.3041","LAUNCH_DATE":"2019-11-11","MEAN_ELEMENT_THEORY":"SGP4","SEMIMAJOR_AXIS":"6925.346","DECAY_DATE":null,"OBJECT_TYPE":"PAYLOAD","MEAN_ANOMALY":"279.8138","APOAPSIS":"548.381","BSTAR":"0.00009953500000","EPOCH":"2021-11-07T21:25:19.058880","CENTER_NAME":"EARTH","MEAN_MOTION_DDOT":"0.0000000000000","OBJECT_ID":"2019-074AY","MEAN_MOTION_DOT":"0.00001201","RCS_SIZE":"LARGE","REV_AT_EPOCH":"10727","PERIOD":"95.592","PERIAPSIS":"546.041","COUNTRY_CODE":"US","MEAN_MOTION":"15.06400829","TLE_LINE2":"2 44759  53.0544 132.0809 0001690  80.3041 279.8138 15.06400829107277","INCLINATION":"53.0544","OBJECT_NAME":"STARLINK-1054","FILE":"3207836","RA_OF_ASC_NODE":"132.0809","NORAD_CAT_ID":"44759","ELEMENT_SET_NO":"999","GP_ID":"189214105","TIME_SYSTEM":"UTC"},{"ECCENTRICITY":"0.00016850","SITE":"AFETR","TLE_LINE1":"1 44760U 19074AZ  21311.87785889 -.00002356  00000-0 -13936-3 0  9993","MEAN_ELEMENT_THEORY":"SGP4","DECAY_DATE":null,"SEMIMAJOR_AXIS":"6925.409","REF_FRAME":"TEME","CLASSIFICATION_TYPE":"U","LAUNCH_DATE":"2019-11-11","EPHEMERIS_TYPE":"0","ARG_OF_PERICENTER":"83.6470","RCS_SIZE":"LARGE","MEAN_MOTION_DOT":"-0.00002356","OBJECT_ID":"2019-074AZ","PERIOD":"95.593","REV_AT_EPOCH":"10963","OBJECT_TYPE":"PAYLOAD","APOAPSIS":"548.441","MEAN_ANOMALY":"276.4711","MEAN_MOTION_DDOT":"0.0000000000000","CENTER_NAME":"EARTH","EPOCH":"2021-11-07T21:04:07.008096","BSTAR":"-0.00013936000000","OBJECT_NAME":"STARLINK-1055","FILE":"3207836","INCLINATION":"53.0522","TIME_SYSTEM":"UTC","ELEMENT_SET_NO":"999","GP_ID":"189214350","NORAD_CAT_ID":"44760","RA_OF_ASC_NODE":"132.1407","MEAN_MOTION":"15.06380231","COUNTRY_CODE":"US","PERIAPSIS":"546.107","TLE_LINE2":"2 44760  53.0522 132.1407 0001685  83.6470 276.4711 15.06380231109632"},{"ECCENTRICITY":"0.00017310","SITE":"AFETR","TLE_LINE1":"1 44761U 19074BA  21311.88891269 -.00000553  00000-0 -18245-4 0  9991","MEAN_ELEMENT_THEORY":"SGP4","SEMIMAJOR_AXIS":"6925.381","DECAY_DATE":null,"CLASSIFICATION_TYPE":"U","REF_FRAME":"TEME","ARG_OF_PERICENTER":"85.5792","EPHEMERIS_TYPE":"0","LAUNCH_DATE":"2019-11-11","OBJECT_ID":"2019-074BA","MEAN_MOTION_DOT":"-0.00000553","RCS_SIZE":"LARGE","REV_AT_EPOCH":"10963","PERIOD":"95.593","MEAN_ANOMALY":"274.5395","OBJECT_TYPE":"PAYLOAD","APOAPSIS":"548.445","BSTAR":"-0.00001824500000","EPOCH":"2021-11-07T21:20:02.056416","MEAN_MOTION_DDOT":"0.0000000000000","CENTER_NAME":"EARTH","INCLINATION":"53.0534","FILE":"3207836","OBJECT_NAME":"STARLINK-1056","RA_OF_ASC_NODE":"132.0906","NORAD_CAT_ID":"44761","ELEMENT_SET_NO":"999","GP_ID":"189213605","TIME_SYSTEM":"UTC","PERIAPSIS":"546.048","COUNTRY_CODE":"US","MEAN_MOTION":"15.06389299","TLE_LINE2":"2 44761  53.0534 132.0906 0001731  85.5792 274.5395 15.06389299109639"}];
